{
  "norad_id": 68633,
  "name": "MISR-C-2",
  "history": [
    {
      "epoch": "2026-04-18T06:37:08.289696Z",
      "apogee_km": 503.36357980163575,
      "perigee_km": 478.17255735313483,
      "latitude_deg": 3.525922966228728e-05,
      "longitude_deg": 102.24586140439212,
      "height_km": 480.40209725842897,
      "semi_major_axis_km": 6868.9050685773855,
      "eccentricity": 0.0018337,
      "inclination_deg": 60.0233,
      "raan_deg": 47.9275,
      "arg_perigee_deg": 341.8953,
      "mean_anomaly_deg": 18.1473,
      "mean_motion_rev_day": 15.25005783
    },
    {
      "epoch": "2026-04-18T06:37:08.290560Z",
      "apogee_km": 503.363511112585,
      "perigee_km": 478.1726260421865,
      "latitude_deg": 3.4947070251513214e-05,
      "longitude_deg": 102.24585761547578,
      "height_km": 480.4021625505356,
      "semi_major_axis_km": 6868.9050685773855,
      "eccentricity": 0.00183369,
      "inclination_deg": 60.0233,
      "raan_deg": 47.9275,
      "arg_perigee_deg": 341.8953,
      "mean_anomaly_deg": 18.1473,
      "mean_motion_rev_day": 15.25005783
    },
    {
      "epoch": "2026-04-20T18:24:40.289472Z",
      "apogee_km": 503.59126516838387,
      "perigee_km": 477.75547135403576,
      "latitude_deg": 8.100643630291146e-06,
      "longitude_deg": -86.65986884313756,
      "height_km": 479.8537653787576,
      "semi_major_axis_km": 6868.810368261209,
      "eccentricity": 0.00188066,
      "inclination_deg": 60.023,
      "raan_deg": 38.3607,
      "arg_perigee_deg": 344.1248,
      "mean_anomaly_deg": 15.9241,
      "mean_motion_rev_day": 15.25037321
    },
    {
      "epoch": "2026-04-22T11:19:14.937024Z",
      "apogee_km": 503.72837384329796,
      "perigee_km": 477.46097018318505,
      "latitude_deg": 2.2180431573568106e-05,
      "longitude_deg": 11.46927158285768,
      "height_km": 479.47070106085425,
      "semi_major_axis_km": 6868.731672013241,
      "eccentricity": 0.0019121,
      "inclination_deg": 60.0228,
      "raan_deg": 31.8143,
      "arg_perigee_deg": 345.7446,
      "mean_anomaly_deg": 14.3093,
      "mean_motion_rev_day": 15.2506353
    },
    {
      "epoch": "2026-04-22T20:45:41.003424Z",
      "apogee_km": 503.73800008575927,
      "perigee_km": 477.40748815265215,
      "latitude_deg": -3.1273144150030747e-06,
      "longitude_deg": -132.03786448772985,
      "height_km": 479.3961723917678,
      "semi_major_axis_km": 6868.709744119205,
      "eccentricity": 0.0019167,
      "inclination_deg": 60.0227,
      "raan_deg": 30.3035,
      "arg_perigee_deg": 346.1376,
      "mean_anomaly_deg": 13.9176,
      "mean_motion_rev_day": 15.25070833
    },
    {
      "epoch": "2026-04-24T07:22:35.216256Z",
      "apogee_km": 503.8050212220296,
      "perigee_km": 477.169869348103,
      "latitude_deg": -6.931748914193073e-06,
      "longitude_deg": 61.77485418425242,
      "height_km": 479.07754100650874,
      "semi_major_axis_km": 6868.624445285066,
      "eccentricity": 0.0019389,
      "inclination_deg": 60.0226,
      "raan_deg": 24.7637,
      "arg_perigee_deg": 347.7591,
      "mean_anomaly_deg": 12.3016,
      "mean_motion_rev_day": 15.25099242
    },
    {
      "epoch": "2026-04-25T10:07:26.355648Z",
      "apogee_km": 503.8581079528294,
      "perigee_km": 476.95950885795264,
      "latitude_deg": -7.05392157997891e-06,
      "longitude_deg": 15.182490282744004,
      "height_km": 478.8075486402856,
      "semi_major_axis_km": 6868.545808405391,
      "eccentricity": 0.0019581,
      "inclination_deg": 60.0227,
      "raan_deg": 20.4829,
      "arg_perigee_deg": 349.0822,
      "mean_anomaly_deg": 10.9831,
      "mean_motion_rev_day": 15.25125433
    },
    {
      "epoch": "2026-04-25T10:07:26.356512Z",
      "apogee_km": 503.8583826946615,
      "perigee_km": 476.95923411611966,
      "latitude_deg": -6.290300190610215e-06,
      "longitude_deg": 15.182487110925774,
      "height_km": 478.80727885529916,
      "semi_major_axis_km": 6868.545808405391,
      "eccentricity": 0.00195814,
      "inclination_deg": 60.0227,
      "raan_deg": 20.4829,
      "arg_perigee_deg": 349.0822,
      "mean_anomaly_deg": 10.9831,
      "mean_motion_rev_day": 15.25125433
    },
    {
      "epoch": "2026-04-27T20:20:14.762976Z",
      "apogee_km": 503.95224072131714,
      "perigee_km": 476.4664922319507,
      "latitude_deg": 3.260319553521978e-05,
      "longitude_deg": -149.72692424638873,
      "height_km": 478.2017084523869,
      "semi_major_axis_km": 6868.346366476633,
      "eccentricity": 0.0020009,
      "inclination_deg": 60.0234,
      "raan_deg": 11.1659,
      "arg_perigee_deg": 352.0727,
      "mean_anomaly_deg": 8.0035,
      "mean_motion_rev_day": 15.25191863
    }
  ]
}